{
    "links": {
        "self": "http://www.neowsapp.com/rest/v1/neo/3635123?api_key=iIulBulltgU6a56xZRHN4H3l9WmuAYTsLGpBGhQ2"
    },
    "id": "3635123",
    "neo_reference_id": "3635123",
    "name": "(2013 HV14)",
    "designation": "2013 HV14",
    "nasa_jpl_url": "http://ssd.jpl.nasa.gov/sbdb.cgi?sstr=3635123",
    "absolute_magnitude_h": 21.1,
    "estimated_diameter": {
        "kilometers": {
            "estimated_diameter_min": 0.160160338,
            "estimated_diameter_max": 0.358129403
        },
        "meters": {
            "estimated_diameter_min": 160.1603379786,
            "estimated_diameter_max": 358.1294030194
        },
        "miles": {
            "estimated_diameter_min": 0.0995189894,
            "estimated_diameter_max": 0.2225312253
        },
        "feet": {
            "estimated_diameter_min": 525.4604432536,
            "estimated_diameter_max": 1174.9652706022
        }
    },
    "is_potentially_hazardous_asteroid": false,
    "close_approach_data": [
        {
            "close_approach_date": "2003-04-24",
            "close_approach_date_full": "2003-Apr-24 13:13",
            "epoch_date_close_approach": 1051189980000,
            "relative_velocity": {
                "kilometers_per_second": "14.1880750595",
                "kilometers_per_hour": "51077.0702141615",
                "miles_per_hour": "31737.3051005716"
            },
            "miss_distance": {
                "astronomical": "0.3817041777",
                "lunar": "148.4829251253",
                "kilometers": "57102131.954021499",
                "miles": "35481619.4916707262"
            },
            "orbiting_body": "Earth"
        },
        {
            "close_approach_date": "2013-04-24",
            "close_approach_date_full": "2013-Apr-24 17:16",
            "epoch_date_close_approach": 1366823760000,
            "relative_velocity": {
                "kilometers_per_second": "14.3285464463",
                "kilometers_per_hour": "51582.7672065245",
                "miles_per_hour": "32051.5255456318"
            },
            "miss_distance": {
                "astronomical": "0.3132747507",
                "lunar": "121.8638780223",
                "kilometers": "46865235.429501009",
                "miles": "29120706.9507675642"
            },
            "orbiting_body": "Earth"
        },
        {
            "close_approach_date": "2023-04-24",
            "close_approach_date_full": "2023-Apr-24 16:35",
            "epoch_date_close_approach": 1682354100000,
            "relative_velocity": {
                "kilometers_per_second": "15.3404193605",
                "kilometers_per_hour": "55225.5096979073",
                "miles_per_hour": "34314.9840675691"
            },
            "miss_distance": {
                "astronomical": "0.302288661",
                "lunar": "117.590289129",
                "kilometers": "45221739.81075207",
                "miles": "28099486.127915766"
            },
            "orbiting_body": "Earth"
        },
        {
            "close_approach_date": "2033-04-23",
            "close_approach_date_full": "2033-Apr-23 13:13",
            "epoch_date_close_approach": 1997874780000,
            "relative_velocity": {
                "kilometers_per_second": "16.4657274148",
                "kilometers_per_hour": "59276.618693284",
                "miles_per_hour": "36832.1856541686"
            },
            "miss_distance": {
                "astronomical": "0.3797435734",
                "lunar": "147.7202500526",
                "kilometers": "56808829.726828658",
                "miles": "35299369.9387171604"
            },
            "orbiting_body": "Earth"
        }
    ],
    "orbital_data": {
        "orbit_id": "12",
        "orbit_determination_date": "2017-04-06 08:46:01",
        "first_observation_date": "2013-04-20",
        "last_observation_date": "2013-06-03",
        "data_arc_in_days": 44,
        "observations_used": 49,
        "orbit_uncertainty": "6",
        "minimum_orbit_intersection": ".284284",
        "jupiter_tisserand_invariant": "3.385",
        "epoch_osculation": "2459000.5",
        "eccentricity": ".4348625099822266",
        "semi_major_axis": "2.225979218213684",
        "inclination": "27.27855601883086",
        "ascending_node_longitude": "26.57887290739539",
        "orbital_period": "1213.05386253471",
        "perihelion_distance": "1.257984308213007",
        "perihelion_argument": "207.759655082793",
        "aphelion_distance": "3.193974128214361",
        "perihelion_time": "2458864.347348609762",
        "mean_anomaly": "40.40624741762716",
        "mean_motion": ".296771653030946",
        "equinox": "J2000",
        "orbit_class": {
            "orbit_class_type": "AMO",
            "orbit_class_description": "Near-Earth asteroid orbits similar to that of 1221 Amor",
            "orbit_class_range": "1.017 AU < q (perihelion) < 1.3 AU"
        }
    },
    "is_sentry_object": false
}